{
  "norad_id": 52273,
  "name": "STARLINK-3782",
  "history": [
    {
      "epoch": "2026-03-28T22:20:23.770752",
      "apogee_km": 540.7947296005505,
      "perigee_km": 538.682010462544,
      "latitude_deg": -52.93676618977476,
      "longitude_deg": -143.3402547200676,
      "semi_major_axis_km": 6917.875370031547,
      "eccentricity": 0.0001527,
      "inclination_deg": 53.2186,
      "raan_deg": 13.1255,
      "arg_perigee_deg": 98.5769,
      "mean_anomaly_deg": 261.5397,
      "mean_motion_rev_day": 15.08841642
    },
    {
      "epoch": "2026-03-29T01:31:09.882048",
      "apogee_km": 540.8659432491386,
      "perigee_km": 538.5927323705346,
      "latitude_deg": 22.951950658400673,
      "longitude_deg": -130.62235327996314,
      "semi_major_axis_km": 6917.866337809836,
      "eccentricity": 0.0001643,
      "inclination_deg": 53.2202,
      "raan_deg": 12.5314,
      "arg_perigee_deg": 96.4493,
      "mean_anomaly_deg": 263.6686,
      "mean_motion_rev_day": 15.08844597
    }
  ]
}